{
  "type": "FeatureCollection",
  "features": [
    {
      "type": "Feature",
      "properties": {
        "norad_id": 30232,
        "name": "FENGYUN 1C DEB",
        "group": "fengyun-1c-debris",
        "lat": 27.462164356806007,
        "lon": 7.767498423180433,
        "alt_km": 764.8505283225677,
        "timestamp": "2025-12-09T05:43:21.000651+00:00",
        "meta_object_name": "FENGYUN 1C DEB",
        "meta_object_id": "1999-025WR",
        "meta_epoch": "2025-12-08T12:43:38.248320",
        "meta_mean_motion": 14.63540534,
        "meta_eccentricity": 0.01362891,
        "meta_inclination": 98.6931,
        "meta_ra_of_asc_node": 182.4601,
        "meta_arg_of_pericenter": 2.8031,
        "meta_mean_anomaly": 19.7388,
        "meta_ephemeris_type": 0,
        "meta_classification_type": "U",
        "meta_norad_cat_id": 30232,
        "meta_element_set_no": 999,
        "meta_rev_at_epoch": 99690,
        "meta_bstar": 0.00094235005,
        "meta_mean_motion_dot": 5.536e-05,
        "meta_mean_motion_ddot": 0,
        "tle_line1": "1 30232U 99025WR  25342.53030380  .00005536  00000+0  94235-3 0  9997",
        "tle_line2": "2 30232  98.6931 182.4601 0136289   2.8031  19.7388 14.63540534996907"
      },
      "geometry": {
        "type": "Point",
        "coordinates": [
          7.767498423180433,
          27.462164356806007
        ]
      }
    },
    {
      "type": "Feature",
      "properties": {
        "norad_id": 30234,
        "name": "FENGYUN 1C DEB",
        "group": "fengyun-1c-debris",
        "lat": -75.87733032806018,
        "lon": 31.266859401460493,
        "alt_km": 889.7597987905456,
        "timestamp": "2025-12-09T05:43:21.000662+00:00",
        "meta_object_name": "FENGYUN 1C DEB",
        "meta_object_id": "1999-025WT",
        "meta_epoch": "2025-12-08T12:09:59.266944",
        "meta_mean_motion": 14.16856436,
        "meta_eccentricity": 0.00670752,
        "meta_inclination": 98.6338,
        "meta_ra_of_asc_node": 353.4093,
        "meta_arg_of_pericenter": 87.1638,
        "meta_mean_anomaly": 65.2324,
        "meta_ephemeris_type": 0,
        "meta_classification_type": "U",
        "meta_norad_cat_id": 30234,
        "meta_element_set_no": 999,
        "meta_rev_at_epoch": 97396,
        "meta_bstar": 0.0005588745,
        "meta_mean_motion_dot": 1.103e-05,
        "meta_mean_motion_ddot": 0,
        "tle_line1": "1 30234U 99025WT  25342.50693596  .00001103  00000+0  55887-3 0  9996",
        "tle_line2": "2 30234  98.6338 353.4093 0067075  87.1638  65.2324 14.16856436973966"
      },
      "geometry": {
        "type": "Point",
        "coordinates": [
          31.266859401460493,
          -75.87733032806018
        ]
      }
    },
    {
      "type": "Feature",
      "properties": {
        "norad_id": 30235,
        "name": "FENGYUN 1C DEB",
        "group": "fengyun-1c-debris",
        "lat": -14.0205063819618,
        "lon": 3.711774571557684,
        "alt_km": 880.7688985573168,
        "timestamp": "2025-12-09T05:43:21.000674+00:00",
        "meta_object_name": "FENGYUN 1C DEB",
        "meta_object_id": "1999-025WU",
        "meta_epoch": "2025-12-08T13:19:49.266912",
        "meta_mean_motion": 14.08770671,
        "meta_eccentricity": 0.0153288,
        "meta_inclination": 98.7498,
        "meta_ra_of_asc_node": 0.8447,
        "meta_arg_of_pericenter": 250.4362,
        "meta_mean_anomaly": 231.7575,
        "meta_ephemeris_type": 0,
        "meta_classification_type": "U",
        "meta_norad_cat_id": 30235,
        "meta_element_set_no": 999,
        "meta_rev_at_epoch": 96834,
        "meta_bstar": 0.00064193,
        "meta_mean_motion_dot": 1.19e-05,
        "meta_mean_motion_ddot": 0,
        "tle_line1": "1 30235U 99025WU  25342.55543133  .00001190  00000+0  64193-3 0  9999",
        "tle_line2": "2 30235  98.7498   0.8447 0153288 250.4362 231.7575 14.08770671968343"
      },
      "geometry": {
        "type": "Point",
        "coordinates": [
          3.711774571557684,
          -14.0205063819618
        ]
      }
    },
    {
      "type": "Feature",
      "properties": {
        "norad_id": 30237,
        "name": "FENGYUN 1C DEB",
        "group": "fengyun-1c-debris",
        "lat": -52.72216856400013,
        "lon": -105.90113292654075,
        "alt_km": 761.4758295320371,
        "timestamp": "2025-12-09T05:43:21.000684+00:00",
        "meta_object_name": "FENGYUN 1C DEB",
        "meta_object_id": "1999-025WW",
        "meta_epoch": "2025-12-08T20:52:13.223136",
        "meta_mean_motion": 14.4080013,
        "meta_eccentricity": 0.0013691,
        "meta_inclination": 98.8258,
        "meta_ra_of_asc_node": 85.4962,
        "meta_arg_of_pericenter": 317.1165,
        "meta_mean_anomaly": 164.558,
        "meta_ephemeris_type": 0,
        "meta_classification_type": "U",
        "meta_norad_cat_id": 30237,
        "meta_element_set_no": 999,
        "meta_rev_at_epoch": 97642,
        "meta_bstar": 0.003746,
        "meta_mean_motion_dot": 0.00011978,
        "meta_mean_motion_ddot": 0,
        "tle_line1": "1 30237U 99025WW  25342.86959749  .00011978  00000+0  37460-2 0  9990",
        "tle_line2": "2 30237  98.8258  85.4962 0013691 317.1165 164.5580 14.40800130976423"
      },
      "geometry": {
        "type": "Point",
        "coordinates": [
          -105.90113292654075,
          -52.72216856400013
        ]
      }
    },
    {
      "type": "Feature",
      "properties": {
        "norad_id": 30239,
        "name": "FENGYUN 1C DEB",
        "group": "fengyun-1c-debris",
        "lat": -76.06433643263392,
        "lon": 175.81229359425015,
        "alt_km": 2353.146477126259,
        "timestamp": "2025-12-09T05:43:21.000695+00:00",
        "meta_object_name": "FENGYUN 1C DEB",
        "meta_object_id": "1999-025WY",
        "meta_epoch": "2025-12-08T09:03:39.099168",
        "meta_mean_motion": 11.38060578,
        "meta_eccentricity": 0.13460507,
        "meta_inclination": 99.5887,
        "meta_ra_of_asc_node": 132.3018,
        "meta_arg_of_pericenter": 38.3016,
        "meta_mean_anomaly": 330.6281,
        "meta_ephemeris_type": 0,
        "meta_classification_type": "U",
        "meta_norad_cat_id": 30239,
        "meta_element_set_no": 999,
        "meta_rev_at_epoch": 54485,
        "meta_bstar": 0.014654901,
        "meta_mean_motion_dot": 4.849e-05,
        "meta_mean_motion_ddot": 0,
        "tle_line1": "1 30239U 99025WY  25342.37753587  .00004849  00000+0  14655-1 0  9999",
        "tle_line2": "2 30239  99.5887 132.3018 1346050  38.3016 330.6281 11.38060578544851"
      },
      "geometry": {
        "type": "Point",
        "coordinates": [
          175.81229359425015,
          -76.06433643263392
        ]
      }
    },
    {
      "type": "Feature",
      "properties": {
        "norad_id": 30241,
        "name": "FENGYUN 1C DEB",
        "group": "fengyun-1c-debris",
        "lat": -18.589684790491205,
        "lon": -67.04467923461912,
        "alt_km": 897.1523739107724,
        "timestamp": "2025-12-09T05:43:21.000707+00:00",
        "meta_object_name": "FENGYUN 1C DEB",
        "meta_object_id": "1999-025XA",
        "meta_epoch": "2025-12-08T20:58:53.166144",
        "meta_mean_motion": 14.09541011,
        "meta_eccentricity": 0.01468,
        "meta_inclination": 99.1483,
        "meta_ra_of_asc_node": 115.6921,
        "meta_arg_of_pericenter": 91.8428,
        "meta_mean_anomaly": 58.1595,
        "meta_ephemeris_type": 0,
        "meta_classification_type": "U",
        "meta_norad_cat_id": 30241,
        "meta_element_set_no": 999,
        "meta_rev_at_epoch": 96857,
        "meta_bstar": 0.00044094,
        "meta_mean_motion_dot": 8.07e-06,
        "meta_mean_motion_ddot": 0,
        "tle_line1": "1 30241U 99025XA  25342.87422646  .00000807  00000+0  44094-3 0  9998",
        "tle_line2": "2 30241  99.1483 115.6921 0146800  91.8428  58.1595 14.09541011968576"
      },
      "geometry": {
        "type": "Point",
        "coordinates": [
          -67.04467923461912,
          -18.589684790491205
        ]
      }
    },
    {
      "type": "Feature",
      "properties": {
        "norad_id": 30242,
        "name": "FENGYUN 1C DEB",
        "group": "fengyun-1c-debris",
        "lat": 29.850495293895822,
        "lon": 12.456669286391504,
        "alt_km": 825.0843232800416,
        "timestamp": "2025-12-09T05:43:21.000717+00:00",
        "meta_object_name": "FENGYUN 1C DEB",
        "meta_object_id": "1999-025XB",
        "meta_epoch": "2025-12-08T01:03:44.428608",
        "meta_mean_motion": 14.17620858,
        "meta_eccentricity": 0.00112584,
        "meta_inclination": 98.6836,
        "meta_ra_of_asc_node": 16.3211,
        "meta_arg_of_pericenter": 67.632,
        "meta_mean_anomaly": 351.8033,
        "meta_ephemeris_type": 0,
        "meta_classification_type": "U",
        "meta_norad_cat_id": 30242,
        "meta_element_set_no": 999,
        "meta_rev_at_epoch": 97360,
        "meta_bstar": 0.00086530978,
        "meta_mean_motion_dot": 1.718e-05,
        "meta_mean_motion_ddot": 0,
        "tle_line1": "1 30242U 99025XB  25342.04426422  .00001718  00000+0  86531-3 0  9998",
        "tle_line2": "2 30242  98.6836  16.3211 0011258  67.6320 351.8033 14.17620858973608"
      },
      "geometry": {
        "type": "Point",
        "coordinates": [
          12.456669286391504,
          29.850495293895822
        ]
      }
    }
  ]
}